0 PEGASUS DEB
1 24581U 94029YH  13281.84765233  .00002349  00000-0  99160-3 0  9207
2 24581 081.5550 223.3721 0831757 089.0062 331.5578 13.15295245822722
0 PEGASUS DEB
1 24581U 94029YH  13284.13846809  .00003584  00000-0  15186-2 0  9219
2 24581 081.5548 221.5181 0831647 083.3658 018.7877 13.15313461823026
0 PEGASUS DEB
1 24581U 94029YH  13286.19007854  .00002363  00000-0  99713-3 0  9220
2 24581 081.5552 219.8577 0831725 078.3198 013.4519 13.15323218823295
0 PEGASUS DEB
1 24581U 94029YH  13288.25501572  .00005070  00000-0  21512-2 0  9235
2 24581 081.5549 218.1864 0831672 073.2407 071.3074 13.15334991823569
0 PEGASUS DEB
1 24581U 94029YH  13290.82226727  .00005503  00000-0  23349-2 0  9249
2 24581 081.5554 216.1088 0831659 066.9328 347.8538 13.15353724823906
0 PEGASUS DEB
1 24581U 94029YH  13293.19172809  .00006084  00000-0  25806-2 0  9259
2 24581 081.5561 214.1914 0831691 061.1125 047.9752 13.15373035824216
0 PEGASUS DEB
1 24581U 94029YH  13295.24655063  .00006851  00000-0  29068-2 0  9262
2 24581 081.5562 212.5286 0831615 056.0555 058.3573 13.15396105824486
